NORAD_CAT_ID,OBJECT_NAME,OBJECT_TYPE,EPOCH,MEAN_MOTION,ECCENTRICITY,INCLINATION,RA_OF_ASC_NODE,ARG_OF_PERICENTER,MEAN_ANOMALY,BSTAR,MEAN_MOTION_DOT,MEAN_MOTION_DDOT,TLE_LINE0,TLE_LINE1,TLE_LINE2,SEMIMAJOR_AXIS,PERIOD,APOGEE,PERIGEE,DECAYED
53780.0,STARLINK-4678,PAYLOAD,2024-03-25 03:49:48,15.08843202,5.19e-05,53.2173,241.9592,142.6768,217.4261,0.00017817,2.549e-05,0.0,0 STARLINK-4678,1 53780U 22111H   24085.15959049  .00002549  00000-0  17817-3 0  9998,2 53780  53.2173 241.9592 0000519 142.6768 217.4261 15.08843202 85017,6917.871,95.437,540.095,539.377,0.0
53780.0,STARLINK-4678,PAYLOAD,2024-03-25 10:11:22,15.08796551,0.0001259,53.2156,240.7761,80.7055,279.4079,-0.0012742,-0.00020485,0.0,0 STARLINK-4678,1 53780U 22111H   24085.42456727 -.00020485  00000-0 -12742-2 0  9995,2 53780  53.2156 240.7761 0001259  80.7055 279.4079 15.08796551 85059,6918.013,95.44,540.749,539.007,0.0
53780.0,STARLINK-4678,PAYLOAD,2024-03-25 16:32:55,15.08792545,0.000121,53.2149,239.587,82.045,278.0679,-0.00067761,-0.00011042,0.0,0 STARLINK-4678,1 53780U 22111H   24085.68953687 -.00011042  00000-0 -67761-3 0  9991,2 53780  53.2149 239.5870 0001210  82.0450 278.0679 15.08792545 85903,6918.025,95.441,540.728,539.053,0.0
53780.0,STARLINK-4678,PAYLOAD,2024-03-26 13:12:57,15.08890715,0.0001573,53.2155,235.7206,93.8146,266.3027,0.003226,0.00051501,0.0,0 STARLINK-4678,1 53780U 22111H   24086.55066009  .00051501  00000-0  32260-2 0  9998,2 53780  53.2155 235.7206 0001573  93.8146 266.3027 15.08890715 85225,6917.725,95.434,540.679,538.502,0.0
53780.0,STARLINK-4678,PAYLOAD,2024-03-26 14:48:19,15.08911439,0.0001702,53.2177,235.4202,90.8802,269.2385,0.0037326,0.00059737,0.0,0 STARLINK-4678,1 53780U 22111H   24086.61689703  .00059737  00000-0  37326-2 0  9994,2 53780  53.2177 235.4202 0001702  90.8802 269.2385 15.08911439 86049,6917.662,95.433,540.704,538.35,0.0
53780.0,STARLINK-4678,PAYLOAD,2024-03-26 19:34:27,15.08952509,0.0001221,53.2148,234.5266,77.0089,283.1039,0.0038359,0.00061483,0.0,0 STARLINK-4678,1 53780U 22111H   24086.81559307  .00061483  00000-0  38359-2 0  9990,2 53780  53.2148 234.5266 0001221  77.0089 283.1039 15.08952509 85264,6917.537,95.43,540.246,538.557,0.0
53780.0,STARLINK-4678,PAYLOAD,2024-03-27 13:03:40,15.08839662,0.0003593,53.2158,231.2596,356.8448,3.252,-0.002503,-0.00039909,0.0,0 STARLINK-4678,1 53780U 22111H   24087.54421927 -.00039909  00000-0 -25030-2 0  9999,2 53780  53.2158 231.2596 0003593 356.8448   3.2520 15.08839662 85378,6917.881,95.438,542.232,537.261,0.0
53780.0,STARLINK-4678,PAYLOAD,2024-03-27 14:39:03,15.08843576,0.0001156,53.2165,230.9619,55.1617,304.9483,-0.0026334,-0.00041958,0.0,0 STARLINK-4678,1 53780U 22111H   24087.61045293 -.00041958  00000-0 -26334-2 0  9990,2 53780  53.2165 230.9619 0001156  55.1617 304.9483 15.08843576 86197,6917.869,95.437,540.534,538.935,0.0
53780.0,STARLINK-4678,PAYLOAD,2024-03-27 16:14:26,15.08822363,0.0001233,53.2184,230.6647,80.539,279.5741,1.9877e-05,2.8e-07,0.0,0 STARLINK-4678,1 53780U 22111H   24087.67669689  .00000028  00000-0  19877-4 0  9994,2 53780  53.2184 230.6647 0001233  80.5390 279.5741 15.08822363 85398,6917.934,95.439,540.652,538.946,0.0
53780.0,STARLINK-4678,PAYLOAD,2024-03-28 12:54:30,15.08796229,0.0002088,53.2183,226.7975,117.6431,242.4774,0.001716,0.00027095,0.0,0 STARLINK-4678,1 53780U 22111H   24088.53785615  .00027095  00000-0  17160-2 0  9992,2 53780  53.2183 226.7975 0002088 117.6431 242.4774 15.08796229 85525,6918.014,95.44,541.324,538.435,0.0
53780.0,STARLINK-4678,PAYLOAD,2024-03-28 19:16:04,15.08797867,0.0001421,53.2173,225.6102,76.7664,283.3487,0.0013343,0.00020987,0.0,0 STARLINK-4678,1 53780U 22111H   24088.80282706  .00020987  00000-0  13343-2 0  9997,2 53780  53.2173 225.6102 0001421  76.7664 283.3487 15.08797867 85565,6918.009,95.44,540.857,538.891,0.0
53780.0,STARLINK-4678,PAYLOAD,2024-03-29 12:45:18,15.08879528,0.000172,53.2174,222.3396,86.7375,273.3814,0.002286,0.00036321,0.0,0 STARLINK-4678,1 53780U 22111H   24089.53146072  .00036321  00000-0  22860-2 0  9996,2 53780  53.2174 222.3396 0001720  86.7375 273.3814 15.08879528 85677,6917.76,95.435,540.814,538.435,0.0
53780.0,STARLINK-4678,PAYLOAD,2024-03-29 15:56:04,15.08891239,0.0001655,53.2175,221.7452,84.4545,275.6636,0.0023247,0.00036956,0.0,0 STARLINK-4678,1 53780U 22111H   24089.66393607  .00036956  00000-0  23247-2 0  9992,2 53780  53.2175 221.7452 0001655  84.4545 275.6636 15.08891239 86508,6917.724,95.434,540.734,538.444,0.0
53780.0,STARLINK-4678,PAYLOAD,2024-03-30 12:36:04,15.08869409,0.0001507,53.2161,217.877,43.0961,317.0149,0.0014659,0.00023138,0.0,0 STARLINK-4678,1 53780U 22111H   24090.52505004  .00023138  00000-0  14659-2 0  9990,2 53780  53.2161 217.8770 0001507  43.0961 317.0149 15.08869409 85829,6917.79,95.436,540.698,538.613,0.0
53780.0,STARLINK-4678,PAYLOAD,2024-03-30 14:11:27,15.08868127,0.0001552,53.2162,217.5804,53.1433,306.9701,0.0013354,0.00021045,0.0,0 STARLINK-4678,1 53780U 22111H   24090.59128910  .00021045  00000-0  13354-2 0  9990,2 53780  53.2162 217.5804 0001552  53.1433 306.9701 15.08868127 86649,6917.794,95.436,540.733,538.586,0.0
53780.0,STARLINK-4678,PAYLOAD,2024-03-31 12:26:51,15.08846965,0.0001759,53.2149,213.4175,98.9926,261.1266,0.00061187,9.465e-05,0.0,0 STARLINK-4678,1 53780U 22111H   24091.51864602  .00009465  00000-0  61187-3 0  9998,2 53780  53.2149 213.4175 0001759  98.9926 261.1266 15.08846965 85972,6917.859,95.437,540.941,538.507,0.0
53780.0,STARLINK-4678,PAYLOAD,2024-03-31 14:02:14,15.08845704,0.0001597,53.2159,213.1226,85.8471,274.2703,0.00012043,1.629e-05,0.0,0 STARLINK-4678,1 53780U 22111H   24091.58488627  .00001629  00000-0  12043-3 0  9995,2 53780  53.2159 213.1226 0001597  85.8471 274.2703 15.08845704 86799,6917.863,95.437,540.833,538.623,0.0
53780.0,STARLINK-4678,PAYLOAD,2024-03-31 15:37:37,15.08849231,0.0001498,53.215,212.8242,73.7393,286.3764,6.4679e-05,7.42e-06,0.0,0 STARLINK-4678,1 53780U 22111H   24091.65112533  .00000742  00000-0  64679-4 0  9991,2 53780  53.2150 212.8242 0001498  73.7393 286.3764 15.08849231 86805,6917.852,95.437,540.753,538.681,0.0
53780.0,STARLINK-4678,PAYLOAD,2024-04-01 01:09:56,15.08842584,0.0001425,53.2163,211.041,82.9584,277.157,-7.4881e-06,-4.07e-06,0.0,0 STARLINK-4678,1 53780U 22111H   24092.04856674 -.00000407  00000-0 -74881-5 0  9993,2 53780  53.2163 211.0410 0001425  82.9584 277.1570 15.08842584 86055,6917.872,95.437,540.723,538.752,0.0
53780.0,STARLINK-4678,PAYLOAD,2024-04-01 13:53:01,15.08833714,0.0001328,53.2154,208.6623,85.0716,275.0428,-5.3745e-05,-1.143e-05,0.0,0 STARLINK-4678,1 53780U 22111H   24092.57849323 -.00001143  00000-0 -53745-4 0  9997,2 53780  53.2154 208.6623 0001328  85.0716 275.0428 15.08833714 86139,6917.9,95.438,540.683,538.846,0.0
53780.0,STARLINK-4678,PAYLOAD,2024-04-01 17:03:47,15.08845698,0.0001402,53.2153,208.0662,72.2721,287.8424,9.9156e-05,1.291e-05,0.0,0 STARLINK-4678,1 53780U 22111H   24092.71096807  .00001291  00000-0  99156-4 0  9992,2 53780  53.2153 208.0662 0001402  72.2721 287.8424 15.08845698 86155,6917.863,95.437,540.698,538.758,0.0
53780.0,STARLINK-4678,PAYLOAD,2024-04-02 13:43:48,15.08844556,0.0001207,53.2157,204.201,82.1945,277.9184,0.00010975,1.459e-05,0.0,0 STARLINK-4678,1 53780U 22111H   24093.57208807  .00001459  00000-0  10975-3 0  9999,2 53780  53.2157 204.2010 0001207  82.1945 277.9184 15.08844556 87094,6917.866,95.437,540.566,538.896,0.0
53780.0,STARLINK-4678,PAYLOAD,2024-04-03 00:51:30,15.08845385,0.0001158,53.215,202.1194,89.0139,271.0985,0.00017369,2.478e-05,0.0,0 STARLINK-4678,1 53780U 22111H   24094.03576666  .00002478  00000-0  17369-3 0  9998,2 53780  53.2150 202.1194 0001158  89.0139 271.0985 15.08845385 86356,6917.864,95.437,540.53,538.928,0.0
53780.0,STARLINK-4678,PAYLOAD,2024-04-03 13:34:35,15.08837036,0.0001194,53.219,199.7422,89.9475,270.1654,0.00016291,2.306e-05,0.0,0 STARLINK-4678,1 53780U 22111H   24094.56569060  .00002306  00000-0  16291-3 0  9999,2 53780  53.2190 199.7422 0001194  89.9475 270.1654 15.08837036 86433,6917.889,95.438,540.58,538.928,0.0
53780.0,STARLINK-4678,PAYLOAD,2024-04-03 16:45:21,15.08844095,0.0001434,53.2174,199.1448,92.0879,268.0278,8.2428e-05,1.024e-05,0.0,0 STARLINK-4678,1 53780U 22111H   24094.69816755  .00001024  00000-0  82428-4 0  9991,2 53780  53.2174 199.1448 0001434  92.0879 268.0278 15.08844095 87260,6917.868,95.437,540.725,538.741,0.0
53780.0,STARLINK-4678,PAYLOAD,2024-04-04 13:25:22,15.08843018,0.0001359,53.2175,195.2793,93.6166,266.4982,2.899e-06,-2.42e-06,0.0,0 STARLINK-4678,1 53780U 22111H   24095.55928903 -.00000242  00000-0  28990-5 0  9993,2 53780  53.2175 195.2793 0001359  93.6166 266.4982 15.08843018 87395,6917.871,95.437,540.676,538.796,0.0
53780.0,STARLINK-4678,PAYLOAD,2024-04-05 13:16:08,15.08843554,0.0001426,53.2172,190.8193,93.1386,266.9769,0.00026949,4.004e-05,0.0,0 STARLINK-4678,1 53780U 22111H   24096.55288143  .00004004  00000-0  26949-3 0  9998,2 53780  53.2172 190.8193 0001426  93.1386 266.9769 15.08843554 86731,6917.87,95.437,540.721,538.748,0.0
53780.0,STARLINK-4678,PAYLOAD,2024-04-06 13:06:57,15.08833114,0.0001563,53.2176,186.3618,98.677,261.4399,1.7308e-05,-1.3e-07,0.0,0 STARLINK-4678,1 53780U 22111H   24097.54649425 -.00000013  00000-0  17308-4 0  9999,2 53780  53.2176 186.3618 0001563  98.6770 261.4399 15.08833114 86882,6917.901,95.438,540.848,538.685,0.0
53780.0,STARLINK-4678,PAYLOAD,2024-04-06 22:39:16,15.08829744,0.0001436,53.217,184.5767,91.6308,268.4848,-3.1363e-05,-7.87e-06,0.0,0 STARLINK-4678,1 53780U 22111H   24097.94393940 -.00000787  00000-0 -31363-4 0  9997,2 53780  53.2170 184.5767 0001436  91.6308 268.4848 15.08829744 87757,6917.912,95.438,540.77,538.783,0.0
53780.0,STARLINK-4678,PAYLOAD,2024-04-07 09:46:58,15.08832917,0.0001408,53.217,182.495,95.2655,264.8498,-8.7266e-05,-1.676e-05,0.0,0 STARLINK-4678,1 53780U 22111H   24098.40762139 -.00001676  00000-0 -87266-4 0  9990,2 53780  53.2170 182.4950 0001408  95.2655 264.8498 15.08832917 87827,6917.902,95.438,540.741,538.793,0.0
